[{"OBJECT_NAME":"POLAR SCOUT KODIAK","OBJECT_ID":"2018-099G","EPOCH":"2026-03-09T17:58:50.690784","MEAN_MOTION":15.56322865,"ECCENTRICITY":0.00067104,"INCLINATION":97.426,"RA_OF_ASC_NODE":147.1007,"ARG_OF_PERICENTER":221.8259,"MEAN_ANOMALY":138.2483,"EPHEMERIS_TYPE":0,"CLASSIFICATION_TYPE":"U","NORAD_CAT_ID":43764,"ELEMENT_SET_NO":999,"REV_AT_EPOCH":39937,"BSTAR":0.001157319,"MEAN_MOTION_DOT":0.00082126,"MEAN_MOTION_DDOT":0},{"OBJECT_NAME":"STARLINK-1830","OBJECT_ID":"2020-073BK","EPOCH":"2026-03-10T00:00:02.999808","MEAN_MOTION":15.55242879,"ECCENTRICITY":0.0001668,"INCLINATION":53.0428,"RA_OF_ASC_NODE":181.8911,"ARG_OF_PERICENTER":29.9698,"MEAN_ANOMALY":284.4925,"EPHEMERIS_TYPE":0,"CLASSIFICATION_TYPE":"U","NORAD_CAT_ID":46727,"ELEMENT_SET_NO":999,"REV_AT_EPOCH":587,"BSTAR":0.0015501406,"MEAN_MOTION_DOT":0.00107729,"MEAN_MOTION_DDOT":0}]
